SITRO-AIS 5 (KATYS)     
1 57176U 23091L   24119.19304647  .00011109  00000+0  73367-3 0  9992
2 57176  97.6169 171.8289 0016225 293.4098  66.5423 15.07484487 45961
ZORKIY-2M 1             
1 57177U 23091M   24119.20957155  .00010042  00000+0  67227-3 0  9996
2 57177  97.6180 171.8405 0016095 288.7359  71.2121 15.07010275 45965
CUBESX-HSE 3 (RS42S)    
1 57178U 23091N   24119.20371244  .00012102  00000+0  79052-3 0  9994
2 57178  97.6199 172.0782 0015769 286.8341  73.1157 15.07874877 45971
MONITOR-3 (RS58S)       
1 57180U 23091Q   24119.17569101  .00011100  00000+0  73322-3 0  9995
2 57180  97.6180 171.9367 0016426 287.0621  72.8807 15.07473652 45969
MONITOR-4 (RS57S)       
1 57182U 23091S   24119.17696783  .00011458  00000+0  75658-3 0  9994
2 57182  97.6175 171.9137 0016464 287.8037  72.1394 15.07478544 45960
MONITOR-2 (RS39S)       
1 57184U 23091U   24119.17669967  .00007503  00000+0  50404-3 0  9998
2 57184  97.6181 172.0873 0012915 281.6155  78.3623 15.07011945 45970
SVYATOBOR 1 (RS60S)     
1 57187U 23091X   24119.17948744  .00010229  00000+0  66210-3 0  9995
2 57187  97.6184 172.3958 0012381 278.1979  81.7845 15.08293346 45999
HORS 1                  
1 57188U 23091Y   24119.17513215  .00010803  00000+0  69938-3 0  9995
2 57188  97.6163 172.3338 0011730 278.9701  81.0199 15.08277919 45990
VIZARD-METEO (RS38S)    
1 57189U 23091Z   24119.17731031  .00013347  00000+0  83578-3 0  9996
2 57189  97.6178 172.6764 0011335 275.1983  84.7952 15.09453042 46010
NANOZOND 1 (RS49S)      
1 57190U 23091AA  24119.18807252  .00018133  00000+0  10725-2 0  9999
2 57190  97.6154 173.0202 0009665 279.1867  80.8270 15.11472884 46047
SITRO-AIS 6 (CHIRKIN)   
1 57192U 23091AC  24119.18022117  .00011006  00000+0  72578-3 0  9997
2 57192  97.6159 171.8375 0016273 292.9777  66.9734 15.07542030 45963
SITRO-AIS 8 (ANOKHIN)   
1 57193U 23091AD  24119.15759637  .00013288  00000+0  86915-3 0  9993
2 57193  97.6165 171.8605 0016080 294.0484  65.9061 15.07795424 45960
SITRO-AIS 7 (FARTUSHNIY)
1 57194U 23091AE  24119.18384019  .00010627  00000+0  70175-3 0  9990
2 57194  97.6159 171.8273 0016077 293.6571  66.2969 15.07502101 45962
AVION KALUGA 650        
1 57195U 23091AF  24119.18444033  .00007203  00000+0  47981-3 0  9999
2 57195  97.6196 172.2838 0012034 282.8079  77.1804 15.07348390 45987
HORS 2                  
1 57196U 23091AG  24119.16889910  .00013825  00000+0  87488-3 0  9998
2 57196  97.6179 172.5443 0011733 279.7224  80.2680 15.09053760 46003
A-SEANSAT-PG1           
1 57197U 23091AH  24119.13845774  .00011610  00000+0  73024-3 0  9997
2 57197  97.6171 172.5089 0011084 282.6890  77.3099 15.09327863 46002
YARILO 3                
1 57198U 23091AJ  24119.14176654  .00030039  00000+0  16392-2 0  9993
2 57198  97.6212 173.6209 0010049 275.6287  84.3798 15.14254193 46068
SITRO-AIS 10 (BURDAEV)  
1 57199U 23091AK  24119.18634104  .00013091  00000+0  81864-3 0  9993
2 57199  97.6176 172.6452 0011004 281.0763  78.9228 15.09507891 46011
SITRO-AIS 9 (SHCHUKIN)  
1 57201U 23091AM  24119.18422620  .00012173  00000+0  76189-3 0  9999
2 57201  97.6170 172.6280 0010987 280.9581  79.0411 15.09495487 46016
UTMN 2 (RS27S)          
1 57203U 23091AP  24119.15354324  .00012679  00000+0  80271-3 0  9991
2 57203  97.6185 172.5519 0011572 276.0369  83.9541 15.09058903 46004
SITRO-AIS 12 (SMIRENNIY)
1 57204U 23091AQ  24119.15285079  .00014035  00000+0  87315-3 0  9996
2 57204  97.6186 172.7078 0010935 274.6130  85.3850 15.09680715 46012
ARCCUBE 1 (RS25S)       
1 57205U 23091AR  24119.19755345  .00021295  00000+0  12297-2 0  9991
2 57205  97.6130 173.0815 0009733 280.5352  79.4782 15.12302663 46050
SITRO-AIS 11 (SHEFFER)  
1 57208U 23091AU  24119.20749099  .00013593  00000+0  84406-3 0  9999
2 57208  97.6185 172.7797 0010627 274.6632  85.3383 15.09760872 46023
H2SAT (HEINRICH HERTZ)  
1 57213U 23093A   24117.12271720  .00000015  00000+0  00000+0 0  9996
2 57213   0.0155 202.8541 0001063 323.5436  92.8902  1.00270838  3078
KUZGTU 1 (RS47S)        
1 57217U 23091AV  24119.20819514  .00011742  00000+0  76939-3 0  9995
2 57217  97.6174 171.9743 0015745 288.3412  71.6103 15.07767464 45970
2023-103B               
1 57422U 23103B   24117.30034652  .00084794  00000+0  48013-3 0  9997
2 57422  96.5805 189.2553 0011610 108.9339 289.2549 15.78745974 43351
FENGYUN 3F              
1 57490U 23111A   24119.19663167  .00000268  00000+0  14750-3 0  9994
2 57490  98.7717 188.7830 0000815 143.6406 216.4825 14.19800390 38171
METEOR 2-1 DEB          
1 57492U 75064F   24114.54640885  .00016062  00000+0  77149-2 0  9995
2 57492  81.2788  58.7016 0012534 199.1371 160.9335 14.18727712291274
HJ-2F                   
1 57519U 23116A   24119.17975507  .00021843  00000+0  88690-3 0  9999
2 57519  97.3914 126.5719 0003437 111.9239 248.2364 15.24598013 40074
XRISM                   
1 57800U 23137A   24118.95103515  .00009436  00000+0  72329-3 0  9998
2 57800  31.0038 332.2465 0009761  68.2112 291.9561 15.00557935 35130
